[{"OBJECT_NAME":"CHUANGXIN 1-04 (CX-1-04)","OBJECT_ID":"2014-051B","EPOCH":"2026-03-09T23:17:42.810432","MEAN_MOTION":14.30385817,"ECCENTRICITY":0.00233905,"INCLINATION":98.7069,"RA_OF_ASC_NODE":70.7142,"ARG_OF_PERICENTER":104.1594,"MEAN_ANOMALY":256.2189,"EPHEMERIS_TYPE":0,"CLASSIFICATION_TYPE":"U","NORAD_CAT_ID":40137,"ELEMENT_SET_NO":999,"REV_AT_EPOCH":60036,"BSTAR":5.5260038e-5,"MEAN_MOTION_DOT":9.9e-7,"MEAN_MOTION_DDOT":0},{"OBJECT_NAME":"NOAA 16 DEB","OBJECT_ID":"2000-055J","EPOCH":"2026-03-08T05:48:25.200576","MEAN_MOTION":14.3429622,"ECCENTRICITY":0.00159007,"INCLINATION":98.7778,"RA_OF_ASC_NODE":175.8988,"ARG_OF_PERICENTER":201.6734,"MEAN_ANOMALY":158.3779,"EPHEMERIS_TYPE":0,"CLASSIFICATION_TYPE":"U","NORAD_CAT_ID":41051,"ELEMENT_SET_NO":999,"REV_AT_EPOCH":53253,"BSTAR":0.0028081093,"MEAN_MOTION_DOT":7.86e-5,"MEAN_MOTION_DDOT":0}]
